[{"OBJECT_NAME":"NANOSAT-1","OBJECT_ID":"2004-049B","EPOCH":"2026-03-09T22:09:44.581824","MEAN_MOTION":14.79922101,"ECCENTRICITY":0.00029678,"INCLINATION":98.2096,"RA_OF_ASC_NODE":203.2649,"ARG_OF_PERICENTER":243.7853,"MEAN_ANOMALY":116.3053,"EPHEMERIS_TYPE":0,"CLASSIFICATION_TYPE":"U","NORAD_CAT_ID":28493,"ELEMENT_SET_NO":999,"REV_AT_EPOCH":14076,"BSTAR":0.00025095221,"MEAN_MOTION_DOT":1.84e-5,"MEAN_MOTION_DDOT":0},{"OBJECT_NAME":"FOURIER","OBJECT_ID":"2025-185B","EPOCH":"2026-03-09T17:14:49.271712","MEAN_MOTION":14.77345087,"ECCENTRICITY":0.00115317,"INCLINATION":97.9632,"RA_OF_ASC_NODE":153.1639,"ARG_OF_PERICENTER":59.1676,"MEAN_ANOMALY":301.0667,"EPHEMERIS_TYPE":0,"CLASSIFICATION_TYPE":"U","NORAD_CAT_ID":65298,"ELEMENT_SET_NO":999,"REV_AT_EPOCH":2914,"BSTAR":0.0018015505,"MEAN_MOTION_DOT":0.00012782,"MEAN_MOTION_DDOT":0}]
